{
  "norad_id": 60044,
  "name": "STARLINK-11148 [DTC]",
  "history": [
    {
      "epoch": "2026-04-15T07:34:11.821440Z",
      "apogee_km": 360.26468384253985,
      "perigee_km": 359.1908029597371,
      "latitude_deg": 2.389561269169294e-05,
      "longitude_deg": 128.67871849180148,
      "height_km": 360.7382544458823,
      "semi_major_axis_km": 6737.864743401138,
      "eccentricity": 7.969e-05,
      "inclination_deg": 53.1584,
      "raan_deg": 85.7072,
      "arg_perigee_deg": 100.366,
      "mean_anomaly_deg": 259.7448,
      "mean_motion_rev_day": 15.69709653
    },
    {
      "epoch": "2026-04-16T15:39:33.319008Z",
      "apogee_km": 360.36961089075794,
      "perigee_km": 359.05034045292086,
      "latitude_deg": -3.333891147119376e-05,
      "longitude_deg": -0.5709556681054337,
      "height_km": 360.7910587987964,
      "semi_major_axis_km": 6737.846975671839,
      "eccentricity": 9.79e-05,
      "inclination_deg": 53.1586,
      "raan_deg": 79.115,
      "arg_perigee_deg": 104.6984,
      "mean_anomaly_deg": 255.4142,
      "mean_motion_rev_day": 15.69715862
    },
    {
      "epoch": "2026-04-17T22:13:13.801152Z",
      "apogee_km": 360.41877180352367,
      "perigee_km": 358.9757972131529,
      "latitude_deg": -1.1869023940324501e-05,
      "longitude_deg": -106.52261927901505,
      "height_km": 360.7817842589741,
      "semi_major_axis_km": 6737.834284508338,
      "eccentricity": 0.00010708,
      "inclination_deg": 53.1604,
      "raan_deg": 72.8371,
      "arg_perigee_deg": 103.6869,
      "mean_anomaly_deg": 256.4268,
      "mean_motion_rev_day": 15.69720297
    },
    {
      "epoch": "2026-04-18T21:08:28.736160Z",
      "apogee_km": 360.6647240762859,
      "perigee_km": 358.7094075323894,
      "latitude_deg": -6.305457907012063e-06,
      "longitude_deg": -95.98516869092072,
      "height_km": 360.6310767445334,
      "semi_major_axis_km": 6737.824065804338,
      "eccentricity": 0.0001451,
      "inclination_deg": 53.1602,
      "raan_deg": 68.1281,
      "arg_perigee_deg": 91.8056,
      "mean_anomaly_deg": 268.3128,
      "mean_motion_rev_day": 15.69723868
    },
    {
      "epoch": "2026-04-19T13:57:01.501632Z",
      "apogee_km": 360.63656858460035,
      "perigee_km": 358.87393597140453,
      "latitude_deg": -1.4940662329842646e-05,
      "longitude_deg": 7.734176074353024,
      "height_km": 360.41199313515926,
      "semi_major_axis_km": 6737.892252278002,
      "eccentricity": 0.0001308,
      "inclination_deg": 53.1602,
      "raan_deg": 64.6743,
      "arg_perigee_deg": 73.0635,
      "mean_anomaly_deg": 287.0526,
      "mean_motion_rev_day": 15.6970004
    },
    {
      "epoch": "2026-04-20T06:45:32.857920Z",
      "apogee_km": 360.4291539612659,
      "perigee_km": 359.07753315834725,
      "latitude_deg": -7.324589234086088e-05,
      "longitude_deg": 111.46227109198728,
      "height_km": 360.45476041709867,
      "semi_major_axis_km": 6737.890343559807,
      "eccentricity": 0.0001003,
      "inclination_deg": 53.1586,
      "raan_deg": 61.2234,
      "arg_perigee_deg": 71.6913,
      "mean_anomaly_deg": 288.4213,
      "mean_motion_rev_day": 15.69700707
    },
    {
      "epoch": "2026-04-21T13:19:11.758944Z",
      "apogee_km": 360.42651402478623,
      "perigee_km": 358.96709922227274,
      "latitude_deg": -5.879921694616247e-05,
      "longitude_deg": 5.519103515106863,
      "height_km": 360.7769481960951,
      "semi_major_axis_km": 6737.833806623529,
      "eccentricity": 0.0001083,
      "inclination_deg": 53.1587,
      "raan_deg": 54.9474,
      "arg_perigee_deg": 103.194,
      "mean_anomaly_deg": 256.9198,
      "mean_motion_rev_day": 15.69720464
    },
    {
      "epoch": "2026-04-23T12:41:23.554176Z",
      "apogee_km": 360.3203300732612,
      "perigee_km": 358.9314076354758,
      "latitude_deg": -4.329691738073904e-06,
      "longitude_deg": 3.291778324785376,
      "height_km": 360.9178592527039,
      "semi_major_axis_km": 6737.762868854368,
      "eccentricity": 0.00010307,
      "inclination_deg": 53.1595,
      "raan_deg": 45.2146,
      "arg_perigee_deg": 122.9839,
      "mean_anomaly_deg": 237.1278,
      "mean_motion_rev_day": 15.69745254
    },
    {
      "epoch": "2026-04-24T05:29:56.685120Z",
      "apogee_km": 359.9450179896139,
      "perigee_km": 359.3696103551838,
      "latitude_deg": 1.2596751390609725e-05,
      "longitude_deg": 107.0135148523101,
      "height_km": 360.6982239001763,
      "semi_major_axis_km": 6737.794314172398,
      "eccentricity": 4.27e-05,
      "inclination_deg": 53.1585,
      "raan_deg": 41.7647,
      "arg_perigee_deg": 116.0798,
      "mean_anomaly_deg": 244.0264,
      "mean_motion_rev_day": 15.69734265
    },
    {
      "epoch": "2026-04-25T18:10:19.983936Z",
      "apogee_km": 359.90345703844105,
      "perigee_km": 359.5234422730791,
      "latitude_deg": -9.382949221937511e-07,
      "longitude_deg": -92.12268665381957,
      "height_km": 360.8183599330928,
      "semi_major_axis_km": 6737.85044965576,
      "eccentricity": 2.82e-05,
      "inclination_deg": 53.1592,
      "raan_deg": 34.2317,
      "arg_perigee_deg": 181.5951,
      "mean_anomaly_deg": 178.5066,
      "mean_motion_rev_day": 15.69714648
    },
    {
      "epoch": "2026-04-26T10:58:51.094848Z",
      "apogee_km": 360.56563637215004,
      "perigee_km": 358.8574570085939,
      "latitude_deg": 8.240757656742531e-05,
      "longitude_deg": 11.60474048438902,
      "height_km": 360.34431681480595,
      "semi_major_axis_km": 6737.848546690372,
      "eccentricity": 0.00012676,
      "inclination_deg": 53.1592,
      "raan_deg": 30.779,
      "arg_perigee_deg": 70.8154,
      "mean_anomaly_deg": 289.3002,
      "mean_motion_rev_day": 15.69715313
    },
    {
      "epoch": "2026-04-27T11:25:49.427328Z",
      "apogee_km": 360.5326508557773,
      "perigee_km": 358.9330805496593,
      "latitude_deg": 1.2032587134829434e-05,
      "longitude_deg": -1.1633700498906858,
      "height_km": 360.6693812143282,
      "semi_major_axis_km": 6737.869865702718,
      "eccentricity": 0.0001187,
      "inclination_deg": 53.1607,
      "raan_deg": 25.7581,
      "arg_perigee_deg": 91.6408,
      "mean_anomaly_deg": 268.4746,
      "mean_motion_rev_day": 15.69707863
    },
    {
      "epoch": "2026-04-28T17:59:29.494752Z",
      "apogee_km": 360.5623732386748,
      "perigee_km": 359.03151464661096,
      "latitude_deg": -1.2889268090403884e-06,
      "longitude_deg": -107.11482761666073,
      "height_km": 360.7301741339846,
      "semi_major_axis_km": 6737.933943942643,
      "eccentricity": 0.0001136,
      "inclination_deg": 53.1612,
      "raan_deg": 19.4787,
      "arg_perigee_deg": 91.4597,
      "mean_anomaly_deg": 268.6551,
      "mean_motion_rev_day": 15.69685471
    },
    {
      "epoch": "2026-04-29T16:54:45.162432Z",
      "apogee_km": 360.228891959322,
      "perigee_km": 359.16161933002786,
      "latitude_deg": 3.391857114636118e-05,
      "longitude_deg": -96.58021582380404,
      "height_km": 360.5923477797873,
      "semi_major_axis_km": 6737.832255644675,
      "eccentricity": 7.92e-05,
      "inclination_deg": 53.1597,
      "raan_deg": 14.7699,
      "arg_perigee_deg": 88.1807,
      "mean_anomaly_deg": 271.9302,
      "mean_motion_rev_day": 15.69721006
    },
    {
      "epoch": "2026-04-30T09:43:16.093632Z",
      "apogee_km": 360.5348512741393,
      "perigee_km": 358.871278562111,
      "latitude_deg": -1.9835219815988636e-05,
      "longitude_deg": 7.14975967192948,
      "height_km": 360.8596826563495,
      "semi_major_axis_km": 6737.840064918125,
      "eccentricity": 0.00012345,
      "inclination_deg": 53.1609,
      "raan_deg": 11.3191,
      "arg_perigee_deg": 106.984,
      "mean_anomaly_deg": 253.1313,
      "mean_motion_rev_day": 15.69718277
    },
    {
      "epoch": "2026-05-02T01:27:03.897792Z",
      "apogee_km": 360.3755252112387,
      "perigee_km": 359.169439413904,
      "latitude_deg": 1.3136758329067649e-06,
      "longitude_deg": 121.40843878294531,
      "height_km": 360.58695590760755,
      "semi_major_axis_km": 6737.909482312571,
      "eccentricity": 8.95e-05,
      "inclination_deg": 53.1591,
      "raan_deg": 3.1586,
      "arg_perigee_deg": 80.5154,
      "mean_anomaly_deg": 279.5965,
      "mean_motion_rev_day": 15.69694019
    },
    {
      "epoch": "2026-05-03T15:39:08.350272Z",
      "apogee_km": 360.471093373847,
      "perigee_km": 358.99684720554797,
      "latitude_deg": -1.728488820271635e-05,
      "longitude_deg": -101.02580017890814,
      "height_km": 360.28834481249584,
      "semi_major_axis_km": 6737.870970289698,
      "eccentricity": 0.0001094,
      "inclination_deg": 53.1585,
      "raan_deg": 355.3118,
      "arg_perigee_deg": 60.8259,
      "mean_anomaly_deg": 299.2868,
      "mean_motion_rev_day": 15.69707477
    },
    {
      "epoch": "2026-05-04T19:09:27.472032Z",
      "apogee_km": 360.4776276472285,
      "perigee_km": 358.98721093168297,
      "latitude_deg": 1.3818283884006713e-05,
      "longitude_deg": -160.384857913492,
      "height_km": 360.42502040011357,
      "semi_major_axis_km": 6737.869419289455,
      "eccentricity": 0.0001106,
      "inclination_deg": 53.1582,
      "raan_deg": 349.662,
      "arg_perigee_deg": 72.7552,
      "mean_anomaly_deg": 287.3587,
      "mean_motion_rev_day": 15.69708019
    },
    {
      "epoch": "2026-05-05T18:04:43.474944Z",
      "apogee_km": 360.4584536232305,
      "perigee_km": 359.16746241127476,
      "latitude_deg": -3.665808234583801e-05,
      "longitude_deg": -149.85071456414474,
      "height_km": 360.2435695517853,
      "semi_major_axis_km": 6737.949958017252,
      "eccentricity": 9.58e-05,
      "inclination_deg": 53.157,
      "raan_deg": 344.9542,
      "arg_perigee_deg": 41.5154,
      "mean_anomaly_deg": 318.5936,
      "mean_motion_rev_day": 15.69679875
    }
  ]
}